#aV2021  7 22  0  0  0.00000000     288 DD+AD WGS84 FIT  NGA
## 2167 345600.00000000   300.00000000 59417 0.0000000000000
+   32     1  2  3  4  5  6  7  8  9 10 11 12 13 14 15 16 17
+         18 19 20 21 22 23 24 25 26 27 28 29 30 31 32  0  0
+          0  0  0  0  0  0  0  0  0  0  0  0  0  0  0  0  0
+          0  0  0  0  0  0  0  0  0  0  0  0  0  0  0  0  0
+          0  0  0  0  0  0  0  0  0  0  0  0  0  0  0  0  0
++         2  2  2  2  2  2  2  2  2  2  2  2  2  2  2  2  2
++         2  2  2  2  2  2  2  2  2  2  2  2  2  2  2  0  0
++         0  0  0  0  0  0  0  0  0  0  0  0  0  0  0  0  0
++         0  0  0  0  0  0  0  0  0  0  0  0  0  0  0  0  0
++         0  0  0  0  0  0  0  0  0  0  0  0  0  0  0  0  0
%c cc cc ccc ccc cccc cccc cccc cccc ccccc ccccc ccccc ccccc
%c cc cc ccc ccc cccc cccc cccc cccc ccccc ccccc ccccc ccccc
%f  0.0000000  0.000000000  0.00000000000  0.000000000000000
%f  0.0000000  0.000000000  0.00000000000  0.000000000000000
%i    0    0    0    0      0      0      0      0         0
%i    0    0    0    0      0      0      0      0         0
/*      NGA, ST. LOUIS,MO.                                  
/*   EPHEMERIS COMPUTED FROM 2 DAYS OF DATA                 
/*   EPOCHA v6 SMOOTHER                                     
/*   G2139 IERS2010 SATIGS SATAPC                           
*  2021  7 22 22 40  0.00000000
P  1 -13962.301512  22344.395774    869.202878    620.181366                    
V  1  -1284.719536  -2442.898784  32480.589844     -0.114868                    
P  2  17181.398239  -5268.917562 -18929.071029   -621.403140                    
V  2  -9814.145415  23479.301563 -14874.920657     -0.025725                    
P  3 -15267.279645  12265.904049 -17981.113446   -228.934024                    
V  3 -22658.755737  -1547.612398  18386.470783     -0.121075                    
P  4  -5224.080630  18078.775901 -18711.786572   -202.850106                    
V  4 -12455.240285 -20331.929285 -16220.539027     -0.006596                    
P  5  24232.235019  -6857.942822   8543.927275    -48.729891                    
V  5  11109.418110   2211.523302 -29019.346063     -0.012010                    
P  6  12556.287467   7600.423416 -22078.051056     44.065680                    
V  6 -14206.448696  24249.771251    324.598531      0.057315                    
P  7  -3268.840502  23119.155011  12542.997934    208.507240                    
V  7 -10344.286063  11966.643034 -25985.656442      0.086331                    
P  8 -12625.122559   8246.490538  21845.148499    -29.798635                    
V  8 -14432.253735 -23711.005278    908.429658     -0.014482                    
P  9   5128.338576  23680.093310 -10917.500103   -356.444329                    
V  9  -9343.519635 -10483.759101 -27304.014875     -0.013473                    
P 10 -16596.422249 -11840.797474  17287.092087   -167.366942                    
V 10  21593.249717  -1361.087778  19664.758217     -0.076163                    
P 11  18064.730794  -2806.317801 -19282.427675     21.516567                    
V 11 -12407.046289  21115.331167 -14712.133295      0.078403                    
P 12  16355.472217 -11044.546649 -17961.081984    -72.335993                    
V 12  22159.758328   3064.325244  18684.895119     -0.053067                    
P 13  15998.503192    785.643711  21075.822290    161.214034                    
V 13   9687.384931  25238.643307  -8101.904036      0.050416                    
P 14  16387.256139  12561.829400  16727.834409     41.104943                    
V 14 -21305.114506    877.680694  20163.361340     -0.088822                    
P 15  12046.985925 -10110.629834  21020.778977   -133.670683                    
V 15  16780.220002  22047.840889   1316.542351      0.026631                    
P 16 -26611.920780   -442.710475   2973.507343   -361.429490                    
V 16  -3817.720889  -2402.560398 -31437.225047     -0.061724                    
P 17  12987.327234  23026.784586  -2084.122433    477.861899                    
V 17   -542.691674   3803.957591  32075.153369      0.057661                    
P 18   1937.335507 -22189.290319  14393.521059    339.032271                    
V 18  11241.944922 -14599.068204 -24071.769853     -0.028436                    
P 19  16311.031129  17775.700253 -11551.674719     29.795890                    
V 19   4163.366402  13635.488773  27395.187222      0.049790                    
P 20  26136.476805  -1053.375178  -3729.506221    520.044445                    
V 20  -4170.677616   4316.530213 -30959.765345     -0.001843                    
P 21 -16684.339672  17984.111535  10187.195974    132.861141                    
V 21   2736.837406 -12133.401421  28325.768655      0.022779                    
P 22 -21412.958533  10486.412327 -11312.180096   -556.944032                    
V 22 -15008.460066  -1783.295814  26537.463782      0.095154                    
P 23  -4310.053496 -14842.904240  21583.296747     80.967748                    
V 23  27421.011257  -1022.631853   4708.671335     -0.051676                    
P 24  15077.348650 -20672.177636   6047.668589    183.855247                    
V 24    -78.175265   8998.015854  30115.724377      0.134931                    
P 25   4057.669111 -15151.788900 -21666.589588    178.160684                    
V 25  26929.594640    529.183397   4994.775456      0.066575                    
P 26 -24928.732830  -4933.454540  -8247.150709    113.770329                    
V 26  10210.327671  -3383.871396 -28767.657879      0.045649                    
P 27 -17349.677525  -3314.063508  19769.902107   -166.981850                    
V 27 -11879.286799 -22406.390924 -13698.500547     -0.058149                    
P 28  20654.546522  10906.238739  13009.849503    533.219126                    
V 28 -15807.551041    450.274532  25997.886021     -0.066863                    
P 29  -2128.552056 -23406.427758 -12362.016339   -384.447080                    
V 29   8351.282618  13297.725672 -26778.959301     -0.060292                    
P 30   7001.777091  16353.191402  19722.385322   -453.831363                    
V 30 -14381.356565  20568.929190 -12227.881735     -0.043321                    
P 31 -14426.101199  -5773.088623 -21655.817347   -130.121805                    
V 31  14223.343083 -23278.810413  -2822.081869     -0.021251                    
P 32 -16073.428983 -20656.873695  -4918.918130     12.574033                    
V 32   -857.016592  -6868.647625  30747.168914     -0.022119                    
EOF
